{
    "links": {
        "self": "http://www.neowsapp.com/rest/v1/neo/3713944?api_key=iIulBulltgU6a56xZRHN4H3l9WmuAYTsLGpBGhQ2"
    },
    "id": "3713944",
    "neo_reference_id": "3713944",
    "name": "(2015 FY33)",
    "designation": "2015 FY33",
    "nasa_jpl_url": "http://ssd.jpl.nasa.gov/sbdb.cgi?sstr=3713944",
    "absolute_magnitude_h": 21.5,
    "estimated_diameter": {
        "kilometers": {
            "estimated_diameter_min": 0.1332155667,
            "estimated_diameter_max": 0.2978790628
        },
        "meters": {
            "estimated_diameter_min": 133.2155666981,
            "estimated_diameter_max": 297.8790627982
        },
        "miles": {
            "estimated_diameter_min": 0.0827762899,
            "estimated_diameter_max": 0.1850934111
        },
        "feet": {
            "estimated_diameter_min": 437.0589598459,
            "estimated_diameter_max": 977.2935443908
        }
    },
    "is_potentially_hazardous_asteroid": false,
    "close_approach_data": [
        {
            "close_approach_date": "1969-03-19",
            "close_approach_date_full": "1969-Mar-19 12:21",
            "epoch_date_close_approach": -24838740000,
            "relative_velocity": {
                "kilometers_per_second": "14.4112075882",
                "kilometers_per_hour": "51880.3473173807",
                "miles_per_hour": "32236.430253958"
            },
            "miss_distance": {
                "astronomical": "0.403466368",
                "lunar": "156.948417152",
                "kilometers": "60357709.26943616",
                "miles": "37504541.431332608"
            },
            "orbiting_body": "Earth"
        },
        {
            "close_approach_date": "1996-03-20",
            "close_approach_date_full": "1996-Mar-20 12:14",
            "epoch_date_close_approach": 827324040000,
            "relative_velocity": {
                "kilometers_per_second": "15.0353817369",
                "kilometers_per_hour": "54127.3742529354",
                "miles_per_hour": "33632.6454073309"
            },
            "miss_distance": {
                "astronomical": "0.4034988607",
                "lunar": "156.9610568123",
                "kilometers": "60362570.108146709",
                "miles": "37507561.8164502242"
            },
            "orbiting_body": "Earth"
        },
        {
            "close_approach_date": "2015-03-21",
            "close_approach_date_full": "2015-Mar-21 16:02",
            "epoch_date_close_approach": 1426953720000,
            "relative_velocity": {
                "kilometers_per_second": "14.5114116528",
                "kilometers_per_hour": "52241.081950062",
                "miles_per_hour": "32460.5767261371"
            },
            "miss_distance": {
                "astronomical": "0.3102934337",
                "lunar": "120.7041457093",
                "kilometers": "46419236.756506219",
                "miles": "28843576.2260910622"
            },
            "orbiting_body": "Earth"
        },
        {
            "close_approach_date": "2034-03-21",
            "close_approach_date_full": "2034-Mar-21 19:30",
            "epoch_date_close_approach": 2026582200000,
            "relative_velocity": {
                "kilometers_per_second": "15.0818908844",
                "kilometers_per_hour": "54294.8071839876",
                "miles_per_hour": "33736.6817194061"
            },
            "miss_distance": {
                "astronomical": "0.4039633717",
                "lunar": "157.1417515913",
                "kilometers": "60432059.964338279",
                "miles": "37550740.8108510902"
            },
            "orbiting_body": "Earth"
        },
        {
            "close_approach_date": "2080-03-21",
            "close_approach_date_full": "2080-Mar-21 22:51",
            "epoch_date_close_approach": 3478287060000,
            "relative_velocity": {
                "kilometers_per_second": "15.1984985366",
                "kilometers_per_hour": "54714.5947318784",
                "miles_per_hour": "33997.5213765941"
            },
            "miss_distance": {
                "astronomical": "0.4729802766",
                "lunar": "183.9893275974",
                "kilometers": "70756841.931370842",
                "miles": "43966262.8334559396"
            },
            "orbiting_body": "Earth"
        }
    ],
    "orbital_data": {
        "orbit_id": "14",
        "orbit_determination_date": "2017-04-06 08:34:59",
        "first_observation_date": "2015-03-19",
        "last_observation_date": "2015-04-22",
        "data_arc_in_days": 34,
        "observations_used": 49,
        "orbit_uncertainty": "6",
        "minimum_orbit_intersection": ".276549",
        "jupiter_tisserand_invariant": "3.210",
        "epoch_osculation": "2459000.5",
        "eccentricity": ".4779489005914409",
        "semi_major_axis": "2.437496100162601",
        "inclination": "26.56191153567741",
        "ascending_node_longitude": "178.70701342482",
        "orbital_period": "1389.998466620718",
        "perihelion_distance": "1.272497518893961",
        "perihelion_argument": "1.929273489500124",
        "aphelion_distance": "3.602494681431241",
        "perihelion_time": "2458502.979222359179",
        "mean_anomaly": "128.8544442686551",
        "mean_motion": ".2589930914637701",
        "equinox": "J2000",
        "orbit_class": {
            "orbit_class_type": "AMO",
            "orbit_class_description": "Near-Earth asteroid orbits similar to that of 1221 Amor",
            "orbit_class_range": "1.017 AU < q (perihelion) < 1.3 AU"
        }
    },
    "is_sentry_object": false
}